{
  "norad_id": 54031,
  "name": "COSMOS 2559 [GLONASS-K]",
  "history": [
    {
      "epoch": "2026-03-27T06:39:07.070688",
      "apogee_km": 19157.561450330817,
      "perigee_km": 19102.331348154778,
      "latitude_deg": 51.308395647801014,
      "longitude_deg": -126.29214367992245,
      "semi_major_axis_km": 25508.083399242798,
      "eccentricity": 0.0010826,
      "inclination_deg": 64.318,
      "raan_deg": 317.4582,
      "arg_perigee_deg": 178.2697,
      "mean_anomaly_deg": 181.7868,
      "mean_motion_rev_day": 2.13101261
    }
  ]
}